STARLINK-32792          
1 62504U 25003T   26068.01709129  .00034798  00000+0  12676-2 0  9992
2 62504  43.0047 292.3353 0002838 267.8512  92.2014 15.27590551 66455
FLOCK 4G-11             
1 62629U 25009W   26068.45629261  .00012672  00000+0  47740-3 0  9990
2 62629  97.3964 150.6183 0001611 333.5407  26.5750 15.27220677 63680
